"id","ident","type","name","latitude_deg","longitude_deg","elevation_ft","continent","iso_country","iso_region","municipality","scheduled_service","gps_code","local_code"
"41145","ZA-0002","small_airport","Bhejane Game Reserve Airport","-33.1966667175293","23.934667587280300","1895","AF","ZA","ZA-EC","Willowmore","no","",""
"27286","ZA-0003","small_airport","Koppies Airport","-27.25","27.549999237060500","","AF","ZA","ZA-FS","","no","",""
"41149","ZA-0004","small_airport","Brown's Landing Airport","-32.6974983215","28.320278167700000","300","AF","ZA","ZA-EC","Morgan's Bay","no","",""
"41154","ZA-0005","small_airport","Blanco Airport","-32.08333206176760","26.299999237060500","4200","AF","ZA","ZA-EC","Tarkastad","no","",""
"41160","ZA-0006","small_airport","Brosterlea Farm Airport","-31.28333282470700","26.566667556762700","5500","AF","ZA","ZA-EC","Brosterlea Farm","no","",""
"41161","ZA-0007","small_airport","Stockdale Landing Strip Airport","-31.245100021362300","26.298500061035200","5315","AF","ZA","ZA-EC","Alfalfa","no","",""
"41165","ZA-0008","small_airport","Venterstad Airport","-30.775699615478500","25.787500381469700","4200","AF","ZA","ZA-EC","Venterstad","no","",""
"41166","ZA-0009","small_airport","Philippolis Airport","-30.215900421142600","25.220300674438500","4695","AF","ZA","ZA-FS","Philippolis","no","",""
"41169","ZA-0010","small_airport","Arbeitsgenot Airport","-28.73590087890630","27.231800079345700","4800","AF","ZA","ZA-FS","Winburg","no","",""
"41170","ZA-0011","small_airport","Brandfort Airport","-28.690399169921900","26.420799255371100","4647","AF","ZA","ZA-FS","Brandfort","no","",""
"41171","ZA-0012","small_airport","Arizona Airport","-28.453332901001000","27.524999618530300","5500","AF","ZA","ZA-FS","Senekal","no","",""
"41172","ZA-0013","small_airport","Phuthadijhaba Airport","-28.406665802002000","28.810832977294900","5800","AF","ZA","ZA-FS","Phuthadijhaba","no","",""
"41173","ZA-0014","small_airport","Sterkfontein Airport","-28.376800537109400","29.006200790405300","5479","AF","ZA","ZA-FS","Sterkfontein Dam","no","",""
"41174","ZA-0015","small_airport","Aldam Airport","-28.268888473510700","27.161388397216800","5105","AF","ZA","ZA-FS","Aldam","no","",""
"41175","ZA-0016","small_airport","Aero Farm Airport","-28.22361183166500","29.115833282470700","5580","AF","ZA","ZA-FS","Harrismith","no","",""
"41176","ZA-0017","small_airport","Alberta Airport","-27.984167098999000","28.39444351196290","5540","AF","ZA","ZA-FS","Inhoek","no","",""
"41177","ZA-0018","small_airport","Bartsrus Airport","-27.960416793823200","25.835832595825200","4200","AF","ZA","ZA-FS","Hoopstad","no","",""
"41179","ZA-0019","small_airport","Braehead Airport","-27.680500030517600","27.25349998474120","4300","AF","ZA","ZA-FS","Kroonstad","no","",""
"41181","ZA-0020","small_airport","Anton Fourie Farm Airport","-27.5","26.330554962158200","4300","AF","ZA","ZA-FS","Anton Fourie","no","",""
"41544","ZA-0021","heliport","Pretoria Central Heliport","-25.65570068359380","28.220600128173800","4087","AF","ZA","ZA-GT","Pretoria","no","",""
"41184","ZA-0022","small_airport","Appleby Airport","-27.20133399963380","26.903499603271500","4300","AF","ZA","ZA-FS","Vijoenskroon","no","",""
"41185","ZA-0023","small_airport","Villiers Airport","-27.049999237060500","28.600000381469700","5097","AF","ZA","ZA-FS","Villers","no","",""
"41191","ZA-0024","small_airport","Sun Valley Airfield","-26.03333282470700","27.899999618530300","5000","AF","ZA","ZA-GT","Sun Valley","no","",""
"41192","ZA-0025","small_airport","Aero 57 Airport","-25.903165817260700","28.082000732421900","5100","AF","ZA","ZA-GT","Monavoni","no","",""
"41193","ZA-0026","small_airport","Blue Mountain Valley Airport","-25.857500076293900","27.627777099609400","4150","AF","ZA","ZA-GT","Hekpoort","no","",""
"41194","ZA-0027","small_airport","Bronkhorstspruit Airport","-25.77138900756840","28.726943969726600","4800","AF","ZA","ZA-GT","Bronkhorstspruit","no","",""
"41195","ZA-0028","small_airport","Wakkerstroom Airport","-27.350000381469700","30.166667938232400","5848","AF","ZA","ZA-MP","Wakkerstroom","no","",""
"41196","ZA-0029","small_airport","Amersfoort Airport","-27.020000457763700","29.8700008392334","4500","AF","ZA","ZA-MP","Amerspoort","no","",""
"41197","ZA-0030","small_airport","Dasville Airport","-26.816667556762700","28.46666717529300","5250","AF","ZA","ZA-MP","Grootviei","no","",""
"41199","ZA-0031","small_airport","Evander Landing Strip Airport","-26.489999771118200","29.079999923706100","5288","AF","ZA","ZA-MP","Evander","no","",""
"41200","ZA-0032","small_airport","New Scotland Airport","-26.299999237060500","30.733333587646500","5280","AF","ZA","ZA-MP","New Scotland","no","",""
"41201","ZA-0033","small_airport","Mooivlei Airport","-26.24799919128420","29.71540069580080","5600","AF","ZA","ZA-MP","Saint Helen","no","",""
"41202","ZA-0034","small_airport","Vanggatfontein Airport","-26.200000762939500","28.816667556762700","5100","AF","ZA","ZA-MP","MIddelburg","no","",""
"41203","ZA-0035","small_airport","Blesbokfontain Airport","-26.17569923400880","29.182199478149400","5294","AF","ZA","ZA-MP","Reedstream Park","no","",""
"41206","ZA-0036","small_airport","Forel Airport","-25.950000762939500","30.116666793823200","6464","AF","ZA","ZA-MP","Carolina","no","",""
"300056","ZA-0037","small_airport","Benics Airport","-25.8188991547","29.221700668300000","5100","AF","ZA","ZA-MP","Witbank","no","",""
"299598","ZA-0038","small_airport","Hippo Pools Airport","-24.199722222200000","30.8125","1145","AF","ZA","ZA-NP","Hippo Pools Resort","no","",""
"41209","ZA-0039","small_airport","Blackie Swart Airport","-25.57550048828130","30.975860595703100","3300","AF","ZA","ZA-MP","Blackie Swart","no","",""
"41211","ZA-0040","small_airport","Lavino Airport","-24.83333396911620","30.100000381469700","2550","AF","ZA","ZA-MP","Lavino","no","",""
"41212","ZA-0041","small_airport","Malamala West Airport","-24.808094024658200","31.50456428527830","1176","AF","ZA","ZA-MP","Sparta","no","",""
"41216","ZA-0042","small_airport","Adamsfontein Airport","-30.581388473510700","25.260000228881800","3970","AF","ZA","ZA-NC","Colesberg","no","",""
"41218","ZA-0043","small_airport","Bosluispan  Airport","-29.850276947021500","18.96555519104000","2874","AF","ZA","ZA-NC","Boluispan","no","",""
"41219","ZA-0044","small_airport","Bateleur Airport","-29.1391658782959","23.648332595825200","3368","AF","ZA","ZA-NC","Maselsfontein","no","",""
"41220","ZA-0045","small_airport","John Weston Airport","-28.733333587646500","24.66666603088380","3936","AF","ZA","ZA-NC","Kimberley","no","",""
"41221","ZA-0046","small_airport","Schmidtsdrif Airport","-28.66666603088380","24.03333282470700","3366","AF","ZA","ZA-NC","Schmidtsdrif","no","",""
"41222","ZA-0047","small_airport","Augrabies Airport","-28.630167007400000","20.320333480800000","2200","AF","ZA","ZA-NC","Orange Falls","no","",""
"41223","ZA-0048","small_airport","Barkley West Airport","-28.532833099365200","24.533832550048800","3800","AF","ZA","ZA-NC","Barkley West","no","",""
"41224","ZA-0049","small_airport","Baken Mine Airport","-28.409250259399400","16.779722213745100","135","AF","ZA","ZA-NC","Drifsand","no","",""
"41226","ZA-0050","small_airport","Warrenton Airport","-28.12070083618160","24.87179946899410","3798","AF","ZA","ZA-NC","Warrenton","no","",""
"41227","ZA-0051","small_airport","Bells Bank Airport","-28.104999542236300","24.378334045410200","3875","AF","ZA","ZA-NC","Witputs","no","",""
"41229","ZA-0052","small_airport","Dippiesfield Airport","-28.032222747802700","23.202777862548800","4500","AF","ZA","ZA-NC","Lohatlha","no","",""
"41230","ZA-0053","small_airport","Ganspan Airport","-27.941667556762700","24.81999969482420","3778","AF","ZA","ZA-NC","Ganspan","no","",""
"41232","ZA-0054","small_airport","Askham Airport","-26.9869441986","20.7772216797","2801","AF","ZA","ZA-NC","Askham","no","FAAK",""
"41233","ZA-0055","small_airport","Barrange Airport","-26.125","22.61888885498050","3300","AF","ZA","ZA-NC","Barrange","no","",""
"41235","ZA-0056","small_airport","Scottburg Airport","-30.28569984436040","30.65690040588380","196","AF","ZA","ZA-NL","Umzinto","no","",""
"41236","ZA-0057","small_airport","Diamond Valley Airport","-30.27199935913090","29.39739990234380","4900","AF","ZA","ZA-NL","Swartberg","no","",""
"41238","ZA-0058","small_airport","Alverstone Airfield","-29.779722213745100","30.718334197998000","2740","AF","ZA","ZA-NL","Mpumalanga","no","",""
"41239","ZA-0059","small_airport","Baynesfield Estate Airport","-29.761667251586900","30.3397216796875","2772","AF","ZA","ZA-NL","Atherstone","no","",""
"41242","ZA-0060","small_airport","Ballito Bay (Dophin Coast) Airport","-29.48889923095700","31.179000854492200","200","AF","ZA","ZA-NL","Ballito Bay","no","",""
"41244","ZA-0061","small_airport","Clan Airport","-29.354900360107400","30.4281005859375","2180","AF","ZA","ZA-NL","York","no","",""
"41246","ZA-0062","small_airport","Amatikulu (Microlight) Airport","-29.098167419433600","31.5049991607666","240","AF","ZA","ZA-NL","Amatikulu","no","",""
"41249","ZA-0063","small_airport","Amphitheatre Lodge Airport","-28.639941","29.147501","3900","AF","ZA","ZA-NL","Ethels Drive","no","",""
"41250","ZA-0064","small_airport","Riverview Airport","-28.433332443237300","32.150001525878900","210","AF","ZA","ZA-NL","Riverview","no","",""
"41251","ZA-0065","small_airport","St Lucia Estuary","-28.350000381469700","32.41666793823240","60","AF","ZA","ZA-NL","St Luc√≠a","no","",""
"41252","ZA-0066","small_airport","Battlefields Airport","-28.131526947021500","30.290416717529300","4040","AF","ZA","ZA-NL","Dundee","no","",""
"41256","ZA-0067","small_airport","Jozini Airport","-27.350000381469700","32.13333511352540","355","AF","ZA","ZA-NL","Jozini","no","",""
"41259","ZA-0068","small_airport","Bonwa Phala Airport","-24.886667251586900","28.047222137451200","3650","AF","ZA","ZA-NP","Bonwa Phala","no","",""
"41260","ZA-0069","small_airport","Ulusaba Airport","-24.7854003906","31.3549003601","1263","AF","ZA","ZA-NP","Ulusaba","no","FAUS",""
"41264","ZA-0070","small_airport","Batavia Airport","-24.668333053588900","26.536666870117200","3195","AF","ZA","ZA-NP","Batavia","no","",""
"41267","ZA-0071","small_airport","Blyde Canyon Airport","-24.574443817138700","30.7772216796875","4300","AF","ZA","ZA-NP","Blyde Canyon","no","",""
"41268","ZA-0072","small_airport","Tanda Tula Airport","-24.533599853500000","31.2999992371","1555","AF","ZA","ZA-NP","Welverdiend","no","FATD",""
"41272","ZA-0073","small_airport","Nederland Airport","-24.301300048828100","31.29129981994630","1298","AF","ZA","ZA-NP","Nederland","no","",""
"41274","ZA-0074","small_airport","Boulders Game Ranch Airport","-24.108055114746100","30.90916633605960","1500","AF","ZA","ZA-NP","Gravelotte","no","",""
"41275","ZA-0075","small_airport","Boulders Game Ranch 2 (Microlight) Airport","-24.086666107177700","30.843889236450200","1500","AF","ZA","ZA-NP","Gravelotte","no","",""
"41276","ZA-0076","small_airport","Ranch Motel Airport","-24.041000366210900","29.27589988708500","4500","AF","ZA","ZA-NP","Polokwane","no","",""
"41277","ZA-0077","small_airport","Babala Lodge Airport","-23.328611373901400","27.60961151123050","2700","AF","ZA","ZA-NP","Fahad Game Reserve","no","",""
"41278","ZA-0078","small_airport","Baltimore Airport","-23.256834030151400","28.408832550048800","3203","AF","ZA","ZA-NP","Baltimore","no","",""
"41279","ZA-0079","small_airport","Bergtop Airport","-22.917943954467800","29.457834243774400","2620","AF","ZA","ZA-NP","Waterpoort","no","",""
"41280","ZA-0080","small_airport","Swartwater Highway Strip Airport","-22.840999603271500","28.20870018005370","2800","AF","ZA","ZA-NP","Swartwater","no","",""
"41281","ZA-0081","small_airport","Alldays (Greater Kuduland) Airport","-22.80380630493160","28.995750427246100","2590","AF","ZA","ZA-NP","Alldays","no","",""
"41282","ZA-0082","small_airport","Alldays Safaris Airport","-22.667200088501000","29.315200805664100","2650","AF","ZA","ZA-NP","Alldays","no","",""
"41283","ZA-0083","small_airport","Avarel Airport","-22.579599380493200","29.968900680542000","2100","AF","ZA","ZA-NP","Mopane","no","",""
"41287","ZA-0084","small_airport","Bospoort Airport","-26.595556259155300","26.22922134399410","5085","AF","ZA","ZA-NW","Bospoort","no","",""
"41290","ZA-0085","small_airport","Mafeking North Airport","-25.792057037353500","25.61103057861330","4181","AF","ZA","ZA-NW","Mafeking","no","",""
"41291","ZA-0086","small_airport","Aero Den Airport","-25.726667404174800","27.739721298217800","4050","AF","ZA","ZA-NW","Brits","no","",""
"41292","ZA-0087","small_airport","Botsalano Airport","-25.53333282470700","25.733333587646500","4659","AF","ZA","ZA-NW","Mathase","no","",""
"41293","ZA-0088","small_airport","Beestekraal Airport","-25.299999237060500","27.53333282470700","3200","AF","ZA","ZA-NW","Massikier","no","",""
"41294","ZA-0089","small_airport","Lobatse Southeast Airport","-25.246200561523400","25.881900787353500","3742","AF","ZA","ZA-NW","Nkwedumang","no","",""
"41299","ZA-0090","small_airport","Assegaay Bosch Game Lodge Airport","-33.760250091552700","21.547222137451200","620","AF","ZA","ZA-WC","Vanwyksdorp","no","",""
"41300","ZA-0091","small_airport","Altona Airport","-33.707637786865200","18.646249771118200","261","AF","ZA","ZA-WC","Philadelphia","no","",""
"41308","ZA-0092","small_airport","Holrivier Airport","-31.566667556762700","18.383333206176800","225","AF","ZA","ZA-WC","Viermuisklip","no","",""
"41309","ZA-0093","small_airport","Britstown Airport","-30.58333396911620","23.516666412353500","3500","AF","ZA","ZA-NC","Britstown","no","",""
"41603","ZA-0094","small_airport","Hazyview Airport","-25.050100326538100","31.131900787353500","1810","AF","ZA","ZA-MP","Hazyview","no","",""
"41604","ZA-0095","small_airport","Khoka Moya Airport","-24.593000411987300","31.41510009765630","1440","AF","ZA","ZA-NP","Khoka Moya","no","",""
"41605","ZA-0096","small_airport","Mkambati Airport","-31.283300399780300","29.966699600219700","560","AF","ZA","ZA-EC","Mkambati","no","",""
"41606","ZA-0097","small_airport","Inyati Airport","-24.777700424194300","31.385499954223600","1245","AF","ZA","ZA-NP","Inyati","no","",""
"41607","ZA-0098","small_airport","Tshipise Airport","-22.619300842285200","30.175600051879900","1786","AF","ZA","ZA-NP","Tshipise","no","",""
"41843","ZA-0099","small_airport","Holbank Airport","-26.570999145507800","30.243000030517600","","AF","ZA","ZA-MP","","no","",""
"41844","ZA-0100","small_airport","Bapsfontein Airport","-25.99188889","28.41583333","5292","AF","ZA","ZA-GT","Bapsfontein","no","",""
"41845","ZA-0101","small_airport","Sappi / Ngodwana","-25.58867835998540","30.622364044189500","","AF","ZA","ZA-MP","","no","",""
"300640","ZA-0102","closed","Castle Bromwich Aerodrome/RAF Castle Bromwich","52.517222","-1.786667","","EU","GB","GB-ENG","Warwickshire","no","",""
"29723","ZA-0103","small_airport","Bredasdorp Airport","-34.665","20.0628","30","AF","ZA","ZA-WC","Bredasdorp","no","FABR",""
"299605","ZA-0104","small_airport","Winterveldt Mine Airport","-24.665","30.18528","3000","AF","ZA","ZA-NP","Doornbosch","no","FAWT","FAWT"
"299614","ZA-0105","small_airport","Aviators Paradise Field","-25.69389","27.7825073972","3800","AF","ZA","ZA-GT","","no","FAAP",""
"300057","ZA-0106","small_airport","Benics Airport","-25.8188991547","29.221700668300000","5100","AF","ZA","ZA-MP","Witbank","no","",""
"300670","ZA-0107","closed","Robben Island Airstrip","-33.8004044125","18.363733291600000","","AF","ZA","ZA-WC","","no","",""
"308162","ZA-0108","small_airport","Bethal Airport","-26.480902","29.466671","5475","AF","ZA","ZA-MP","Bethal","no","",""
"308195","ZA-0109","small_airport","Bloemhof Airport","-27.6094","25.5794","4127","AF","ZA","ZA-NW","Bloemhof","no","",""
"309043","ZA-0110","small_airport","Panorama Airfield","-26.329316","28.068469","5000","AF","ZA","ZA-GT","Alberton","no","","PAN"
"310576","ZA-0111","small_airport","Kudu Private Nature Reserve","-24.995","30.403333333300000","4580","AF","ZA","ZA-MP","","no","",""
"310578","ZA-0112","small_airport","Fly Inn Estate","-25.9711496926","28.3502766059","5300","AF","ZA","ZA-GT","","no","",""
"310582","ZA-0113","small_airport","Sunset Shores Airfield","-26.8512013063","28.198428154","4955","AF","ZA","ZA-GT","Sunset Shores","no","",""
"310585","ZA-0114","small_airport","Zebula Golf Estate & Spa","-24.755833","27.97","","AF","ZA","ZA-U-A","Zebula Golf Estate & Spa","no","",""
"312261","ZA-0115","small_airport","High Way Airfield","-33.9508694444","22.9803583333","","AF","ZA","ZA-WC","","no","",""
"312610","ZA-0116","small_airport","Pumba air strip","-33.391911","26.346392","","AF","ZA","ZA-EC","Nelson Mandela Bay","no","",""
"312611","ZA-0117","heliport","Pumba Helipad","-33.387799","26.410595","","AF","ZA","ZA-EC","Nelson Mandela Bay","no","",""
"312612","ZA-0118","closed","Unknown (near Simon's Town)","-34.206585","18.427413","","AF","ZA","ZA-EC","","no","",""
"312624","ZA-0119","heliport","Cape Town Heliport","-33.901018","18.425936","","AF","ZA","ZA-WC","","no","",""
"312691","ZA-0120","small_airport","Morningstar","-33.757978","18.550403","200","AF","ZA","ZA-WC","","no","",""
"314349","ZA-0121","closed","Munster Airfield","-31.0033","30.2487","180","AF","ZA","ZA-EC","Glenmore Beach","no","",""
"315404","ZA-0122","small_airport","Au Beep Flats Airport","-28.1081","16.8936","190","AF","ZA","ZA-NC","Sendelingsdrif","no","",""
"315406","ZA-0123","small_airport","Vanrhynsdorp Airport","-31.5943","18.7468","490","AF","ZA","ZA-WC","Vanrhynsdorp","no","",""
"315407","ZA-0124","small_airport","Doringbaai Airstrip","-31.8057","18.2384","130","AF","ZA","ZA-WC","Doringbaai","no","",""
"315408","ZA-0125","small_airport","Papendorp Airport","-31.6736","18.1737","260","AF","ZA","ZA-WC","Papendorp","no","",""
"315409","ZA-0126","small_airport","Monosite Airfield","-31.1227","18.6095","940","AF","ZA","ZA-WC","Nuwerus","no","",""
"315410","ZA-0127","small_airport","Skaapvlei Airport","-31.4996","18.0643","420","AF","ZA","ZA-WC","Skaapvlei Farmstead","no","",""
"315411","ZA-0128","closed","Garies Airport","-30.6075","17.9039","1348","AF","ZA","ZA-NC","Garies","no","",""
"315416","ZA-0129","small_airport","Hondeklip Bay Airstrip","-30.3366","17.2896","100","AF","ZA","ZA-NC","Hondeklip Bay","no","",""
"315418","ZA-0130","small_airport","Gamoep Airstrip","-29.9214","18.4237","3140","AF","ZA","ZA-NC","Gamoep","no","",""
"315419","ZA-0131","small_airport","Nababiep Airport","-29.524","17.781","2830","AF","ZA","ZA-NC","Nababeep","no","",""
"315420","ZA-0132","small_airport","Buffels River Airport","-29.6265","17.4522","615","AF","ZA","ZA-NC","Buffelsbank","no","",""
"315421","ZA-0133","small_airport","Spektakel Airport","-29.6678","17.6008","615","AF","ZA","ZA-NC","Spektakel","no","",""
"315423","ZA-0134","small_airport","Annakop Airport","-29.1057","19.0791","2528","AF","ZA","ZA-NC","Annakop","no","",""
"317509","ZA-0135","closed","Nossob Airport","-25.4316","20.5975","3200","AF","ZA","ZA-NC","Nossob Rest Camp","no","",""
"317512","ZA-0136","small_airport","Kirstonia Airport","-25.4681","23.6971","3455","AF","ZA","ZA-NW","Bray","no","",""
"317619","ZA-0137","small_airport","Treverton College Airstrip","-29.1944","30.0149","4635","AF","ZA","ZA-NL","Mooi River","no","",""
"317620","ZA-0138","small_airport","Singita Safari Lodge Airport","-24.801985","31.42194","1365","AF","ZA","ZA-MP","Singita Safari Lodge","no","FASP",""
"318474","ZA-0139","small_airport","Tosca Airport","-25.875702","23.962922","","AF","ZA","ZA-NW","Tosca","no","",""
"318475","ZA-0140","heliport","Kuruman Hospital Heliport","-27.459904","23.443762","","AF","ZA","ZA-NC","Kuruman","no","",""
"318835","ZA-0141","small_airport","Groblershoop Airport","-28.912138","21.992947","","AF","ZA","ZA-NC","Groblershoop","no","",""
"318836","ZA-0142","small_airport","Hopetown Airport","-29.630074","24.095224","","AF","ZA","ZA-NC","Hopetown","no","",""
"318837","ZA-0143","small_airport","Orania Airport","-29.816521","24.394959","","AF","ZA","ZA-NC","Orania","no","",""
"318838","ZA-0144","small_airport","Luckhof Airport","-29.737988","24.780042","","AF","ZA","ZA-FS","Luckhof","no","",""
"318839","ZA-0145","small_airport","Jacobsdal Airport","-29.11701","24.785856","","AF","ZA","ZA-FS","Jacobsdal","no","",""
"318840","ZA-0146","small_airport","Griekwastad Airport","-28.832734","23.27354","","AF","ZA","ZA-NC","Griekwastad","no","",""
"318841","ZA-0147","small_airport","Lady Grey Golf Course Airstrip","-30.706581","27.208231","","AF","ZA","ZA-EC","Lady Grey","no","",""
"318842","ZA-0148","small_airport","Hanover Airport","-31.075719","24.452623","","AF","ZA","ZA-NC","Hanover","no","",""
"318843","ZA-0149","small_airport","Vosburg Airport","-30.588342","22.894196","","AF","ZA","ZA-NC","Vosburg","no","",""
"318845","ZA-0150","small_airport","Van Zylsrus Airport","-26.887344","22.06304","","AF","ZA","ZA-NC","Van Zylsrus","no","",""
"324962","ZA-0151","small_airport","Leeukop Farm Airfield","-26.867884","28.075958","5000","AF","ZA","ZA-FS","","no","",""
"324963","ZA-0152","small_airport","Vaal Dam Airfield","-26.94099","28.14281","5000","AF","ZA","ZA-FS","","no","",""
"326497","ZA-0153","small_airport","Elandspad Airfield","-34.433548","20.722225","293","AF","ZA","ZA-WC","","no","",""
"323205","ZA-0154","small_airport","Shingwedzi Camp Airstrip","-23.114988","31.427508","","AF","ZA","ZA-NP","Shingwedzi","no","",""
"323206","ZA-0155","small_airport","Letaba Rest Camp Airstrip","-23.833534","31.570522","","AF","ZA","ZA-NP","","no","",""
"323207","ZA-0156","small_airport","Pafuri Camp Airstrip","-22.415096","31.213011","","AF","ZA","ZA-NP","Pafuri","no","",""
"323208","ZA-0157","small_airport","Mutele-Masisi Airport","-22.507196","30.891882","","AF","ZA","ZA-NP","Mutele","no","",""
"326499","ZA-0158","closed","Old George Airfield","-33.975","22.418302","689","AF","ZA","ZA-WC","George","no","",""
"331866","ZA-0159","small_airport","SKA SA Karoo Landing Strip","-30.6938","21.4608","3427","AF","ZA","ZA-NC","Carnarvon","no","",""
"332375","ZA-0160","closed","Chalumna River Airstrip","-33.21","27.572","20","AF","ZA","ZA-EC","Kayser's Beach","no","",""
"330312","ZA-0161","small_airport","Klipriver Airfield, South Africa","-26.475684","28.111032","5001","AF","ZA","ZA-GT","Midvaal","no","",""
"330555","ZA-0162","small_airport","Bingelela","-28.711116","29.331242","3731","AF","ZA","ZA-NL","Bergville","no","",""
"333001","ZA-0163","small_airport","Kalahari Oryx","-28.421977","22.200966","2880","AF","ZA","ZA-NC","Upington","no","",""
"331107","ZA-0169","small_airport","Lekoa Lodge","-26.945571","28.718068","5085","AF","ZA","ZA-U-A","26¬∞56‚Äô44.84‚ÄùS 28¬∞42‚Äô47.79‚ÄùE","no","","FALEKOA"
"31753","ZA-KIG","small_airport","Koingnaas Airport","-30.18779945373540","17.279199600219700","228","AF","ZA","ZA-NC","Koingnaas","no","",""
"27188","ZBAA","large_airport","Beijing Capital International Airport","40.080101013183600","116.58499908447300","116","AS","CN","CN-11","Beijing","yes","ZBAA",""
"330820","ZBAD","large_airport","Beijing Daxing International Airport","39.509945","116.41092","98","AS","CN","CN-13","Beijing / Langfang","yes","ZBAD",""
"32006","ZBBB","medium_airport","Beijing Xijiao Airport","39.9608","116.257004","","AS","CN","CN-11","Beijing","no","ZBBB",""
"327347","ZBCD","medium_airport","Chengde Puning Airport","41.1225","118.073889","","AS","CN","CN-13","Chengde","yes","ZBCD",""
"30829","ZBCF","medium_airport","Chifeng Airport","42.23500061035160","118.90799713134800","","AS","CN","CN-15","Chifeng","yes","ZBCF",""
"30830","ZBCZ","small_airport","Changzhi Airport","36.247501","113.125999","","AS","CN","CN-14","Changzhi","yes","ZBCZ",""
"318174","ZBDH","medium_airport","Qinhuangdao Beidaihe Airport","39.666389","119.058889","46","AS","CN","CN-13","Qinhuangdao","yes","ZBDH",""
"300513","ZBDS","medium_airport","Ordos Ejin Horo Airport","39.49","109.861388889","4557","AS","CN","CN-15","Ordos","yes","ZBDS",""
"30876","ZBDT","small_airport","Datong Airport","40.060299","113.482002","3442","AS","CN","CN-14","Datong","yes","ZBDT",""
"300671","ZBER","medium_airport","Erenhot Saiwusu International Airport","43.4225","112.096667","3301","AS","CN","CN-15","Erenhot","yes","ZBER",""
"315854","ZBES","medium_airport","Arxan Yi'ershi Airport","47.3106","119.9117","2925","AS","CN","CN-15","Arxan","yes","ZBES",""
"300860","ZBHD","medium_airport","Handan Airport","36.5258333333","114.425555556","229","AS","CN","CN-42","Handan","yes","ZBHD",""
"27189","ZBHH","large_airport","Baita International Airport","40.851398","111.823997","3556","AS","CN","CN-15","Hohhot","yes","ZBHH",""
"327443","ZBHZ","medium_airport","Holingol Huolinhe Airport","45.487222","119.407222","","AS","CN","CN-15","Holingol","yes","ZBHZ",""
"42781","ZBK","closed","≈Ωabljak Airport","43.116669","19.233334","4252","EU","ME","ME-21","≈Ωabljak Airport","no","",""
"27190","ZBLA","medium_airport","Hulunbuir Hailar Airport","49.205002","119.824997","2169","AS","CN","CN-15","Hailar","yes","ZBLA",""
"323216","ZBLF","medium_airport","Linfen Qiaoli Airport","36.132629","111.641236","1483","AS","CN","CN-14","Linfen","yes","ZBLF",""
"327444","ZBLL","medium_airport","L√ºliang Airport","37.683333","111.142778","","AS","CN","CN-61","L√ºliang","yes","ZBLL",""
"322165","ZBMZ","medium_airport","Manzhouli Xijiao Airport","49.566667","117.33","2231","AS","CN","CN-15","","yes","ZBMZ",""
"44093","ZBNY","large_airport","Beijing Nanyuan Airport","39.782798767089800","116.38800048828100","","AS","CN","CN-11","Beijing","yes","ZBNY",""
"30679","ZBOW","medium_airport","Baotou Airport","40.560001373291000","109.99700164794900","3321","AS","CN","CN-15","Baotou","yes","ZBOW",""
"32295","ZBSH","closed","Shanhaiguan Airport","39.968102","119.731003","30","AS","CN","CN-13","Qinhuangdao","no","ZBSH",""
"27191","ZBSJ","medium_airport","Shijiazhuang Daguocun International Airport","38.28070068359380","114.6969985961910","233","AS","CN","CN-13","Shijiazhuang","yes","ZBSJ",""
"27192","ZBTJ","large_airport","Tianjin Binhai International Airport","39.124401092500000","117.346000671","10","AS","CN","CN-12","Tianjin","yes","ZBTJ",""
"32440","ZBTL","medium_airport","Tongliao Airport","43.556702","122.199997","2395","AS","CN","CN-15","Tongliao","yes","ZBTL",""
"327445","ZBUC","medium_airport","Ulanqab Jining Airport","41.129722","113.108056","","AS","CN","CN-15","Ulanqab","yes","ZBUC",""
"308728","ZBUH","small_airport","Wuhai Airport","39.7934","106.7993","3650","AS","CN","CN-15","Wuhai","yes","ZBUH",""
"35315","ZBUL","small_airport","Ulanhot Airport","46.195333","122.008333","","AS","CN","CN-15","Ulanhot","yes","ZBUL",""
"32700","ZBXH","medium_airport","Xilinhot Airport","43.91559982299810","115.96399688720700","","AS","CN","CN-15","Xilinhot","yes","ZBXH",""
"308722","ZBXT","small_airport","Xingtai Dalian Airport","36.8831","114.4293","280","AS","CN","CN-13","Xingtai","no","ZBXT",""
"323217","ZBXZ","small_airport","Xinzhou Wutaishan Airport","38.597456","112.969173","2527","AS","CN","CN-14","Xinzhou","yes","ZBXZ",""
"300455","ZBYC","small_airport","Yuncheng Guangong Airport","35.116391","111.031388889","1242","AS","CN","CN-61","Yuncheng","yes","ZBYC",""
"27193","ZBYN","large_airport","Taiyuan Wusu Airport","37.74689865112310","112.62799835205100","2575","AS","CN","CN-14","Taiyuan","yes","ZBYN",""
"314499","ZBYZ","medium_airport","Bayannur Tianjitai Airport","40.926","107.7428","3400","AS","CN","CN-15","Bavannur","yes","ZBYZ",""
"323666","ZBZL","medium_airport","Chengjisihan Airport","47.865833","122.767503","928","AS","CN","CN-15","Zhalantun","yes","ZBZL",""
"315507","ZDY","small_airport","Delma Airport","24.51","52.3352","30","AS","AE","AE-AZ","Delma Island","yes","OMDL",""
"307352","ZEN","small_airport","Zenag Airport","-6.9522222222200000","146.61625","3200","OC","PG","PG-MPL","Zenag","no","AYZA","ZEN"
"30708","ZGBH","small_airport","Beihai Airport","21.5394","109.293999","","AS","CN","CN-45","Beihai","yes","ZGBH",""
"30825","ZGCD","medium_airport","Changde Airport","28.9188995361","111.63999939","128","AS","CN","CN-43","Changde","yes","ZGCD",""
"300890","ZGCJ","medium_airport","Zhijiang Airport","27.4411111111","109.7","882","AS","CN","CN-43","Huaihua","yes","ZGCJ",""
"30958","ZGDY","small_airport","Dayong Airport","29.1028","110.443001","692","AS","CN","CN-43","Dayong","yes","ZGDY",""
"27194","ZGGG","large_airport","Guangzhou Baiyun International Airport","23.39240074157720","113.29900360107400","50","AS","CN","CN-44","Guangzhou","yes","ZGGG",""
"27195","ZGHA","large_airport","Changsha Huanghua International Airport","28.189199447600000","113.220001221","217","AS","CN","CN-43","Changsha","yes","ZGHA",""
"318152","ZGHC","medium_airport","Hechi Jinchengjiang Airport","24.805","107.6997","2221","AS","CN","CN-45","Hechi","yes","ZGHC",""
"316764","ZGHU","small_airport","Huayuan Airport","44.2421","85.8905","1700","AS","CN","CN-65","Shihezi","yes","ZWHZ",""
"31610","ZGHY","small_airport","Hengyang Nanyue Airport","26.9053","112.627998","","AS","CN","CN-43","Hengyang","yes","ZGHY",""
"27196","ZGKL","large_airport","Guilin Liangjiang International Airport","25.21809959411620","110.03900146484400","570","AS","CN","CN-45","Guilin City","yes","ZGKL",""
"308237","ZGLD","small_airport","Luoding Sulong Airport.","22.711169","111.60134","190","AS","CN","CN-44","Louding City","no","ZGLD",""
"308238","ZGLG","medium_airport","Lingling Airport","26.338661","111.610043","340","AS","CN","CN-43","Yongzhou","yes","ZGLG",""
"35314","ZGMX","small_airport","Meixian Airport","24.350000381469700","116.13300323486300","","AS","CN","CN-44","Meixian","yes","ZGMX",""
"27197","ZGNN","large_airport","Nanning Wuxu Airport","22.608299255371100","108.1719970703130","421","AS","CN","CN-45","Nanning","yes","ZGNN",""
"32400","ZGOW","medium_airport","Jieyang Chaoshan International Airport","23.552","116.5033","","AS","CN","CN-44","Shantou","yes","ZGOW",""
"30593","ZGSD","medium_airport","Zhuhai Jinwan Airport","22.006399","113.375999","23","AS","CN","CN-44","Zhuhai","yes","ZGSD",""
"327446","ZGSY","medium_airport","Shaoyang Wugang Airport","26.802","110.642","1444","AS","CN","CN-43","Shaoyang","yes","ZGSY",""
"27198","ZGSZ","large_airport","Shenzhen Bao'an International Airport","22.639299392700200","113.81099700927700","13","AS","CN","CN-44","Shenzhen","yes","ZGSZ",""
"32685","ZGWZ","closed","Wuzhou Changzhoudao Airport","23.456699","111.248001","89","AS","CN","CN-45","Wuzhou","no","ZGWZ",""
"32701","ZGXN","small_airport","Xingning Airport","24.1492","115.758003","","AS","CN","CN-44","Xingning","no","ZGXN",""
"31874","ZGZH","medium_airport","Liuzhou Bailian Airport","24.2075","109.390999","295","AS","CN","CN-45","Liuzhou","yes","ZGZH",""
"32743","ZGZJ","medium_airport","Zhanjiang Airport","21.214399","110.358002","125","AS","CN","CN-44","Zhanjiang","yes","ZGZJ",""
"30670","ZHAY","small_airport","Anyang Airport","36.1339","114.344002","","AS","CN","CN-41","Anyang","no","ZHAY",""
"27199","ZHCC","large_airport","Zhengzhou Xinzheng International Airport","34.519699096700000","113.841003418","495","AS","CN","CN-41","Zhengzhou","yes","ZHCC",""
"31006","ZHES","small_airport","Enshi Airport","30.3202991486","109.48500061","1605","AS","CN","CN-42","Enshi","yes","ZHES",""
"31818","ZHGH","medium_airport","Guangzhou MR Air Base","32.389400482177700","111.69499969482400","","AS","CN","CN-42","Guanghua","no","ZHGH",""
"27200","ZHHH","large_airport","Wuhan Tianhe International Airport","30.7838","114.208","113","AS","CN","CN-42","Wuhan","yes","ZHHH",""
"31870","ZHLY","small_airport","Luoyang Airport","34.741100311300000","112.388000488","840","AS","CN","CN-41","Luoyang","yes","ZHLY",""
"32041","ZHNY","small_airport","Nanyang Jiangying Airport","32.980801","112.614998","840","AS","CN","CN-41","Nanyang","yes","ZHNY",""
"319811","ZHSN","medium_airport","Shennongjia Hongping Airport","31.626","110.34","8365","AS","CN","CN-42","Shennongjia","yes","ZHSN",""
"32296","ZHSS","small_airport","Shashi Airport","30.324289","112.279861","112","AS","CN","CN-42","Shashi","no","ZHSS",""
"318173","ZHSY","medium_airport","Shiyan Wudangshan Airport","32.591667","110.907778","","AS","CN","CN-42","Shiyan","yes","ZHSY",""
"32697","ZHXF","small_airport","Xiangyang Liuji Airport","32.1506","112.291","","AS","CN","CN-42","Xiangfan","yes","ZHXF",""
"32723","ZHYC","medium_airport","Yichang Sanxia Airport","30.55655","111.479988","673","AS","CN","CN-42","Yichang","yes","ZHYC",""
"301278","ZIZ","heliport","Zamzama Heliport","26.710944444400000","67.66725","128","AS","PK","PK-SD","Zamzama Gas Field","no","",""
"27201","ZJHK","large_airport","Haikou Meilan International Airport","19.934900283813500","110.45899963378900","75","AS","CN","CN-46","Haikou","yes","ZJHK",""
"323220","ZJQH","medium_airport","Qionghai Bo'ao Airport","19.13824","110.454775","30","AS","CN","CN-46","Qionghai","yes","ZJQH",""
"27202","ZJSY","large_airport","Sanya Phoenix International Airport","18.302900314331100","109.41200256347700","92","AS","CN","CN-46","Sanya","yes","ZJSY",""
"32745","ZJYX","small_airport","Woody Island Airport","16.832799911499000","112.34400177002000","","AS","CN","CN-46","Woody Island","no","ZJYX",""
"27203","ZKPY","medium_airport","Pyongyang Sunan International Airport","39.224098","125.669998","117","AS","KP","KP-01","Pyongyang","yes","ZKPY",""
"35231","ZKSC","medium_airport","Sunchon Air Base","39.415699","125.894997","141","AS","KP","KP-02","Sunchon","no","ZKSC",""
"35218","ZKSD","medium_airport","Sondok Airport","39.745201","127.473999","12","AS","KP","KP-08","S≈ènd≈èng-ni","yes","ZKSD",""
"35213","ZKWS","medium_airport","Wonsan Kalma International Airport","39.166801","127.486","7","AS","KP","KP-07","Wonsan","yes","ZKWS",""
"30632","ZLAK","small_airport","Ankang Wulipu Airport","32.708099","108.931","860","AS","CN","CN-61","Ankang","yes","ZLAK",""
"35311","ZLAN","closed","Lanzhou City Airport","36.033333","103.86667","5040","AS","CN","CN-62","Lanzhou","no","ZLAN",""
"30929","ZLDH","medium_airport","Dunhuang Airport","40.16109848022460","94.80919647216800","","AS","CN","CN-62","Dunhuang","yes","ZLDH",""
"318171","ZLDL","small_airport","Delingha Airport","37.125286","97.268658","9843","AS","CN","CN-63","Delingha","yes","ZLDL",""
"318919","ZLG","closed","La G√ºera Airport","20.836389","-17.074167","10","AF","EH","EH-U-A","La G√ºera","no","",""
"35308","ZLGM","medium_airport","Golmud Airport","36.4006","94.786102","9334","AS","CN","CN-63","Golmud","yes","ZLGM",""
"300741","ZLGY","medium_airport","Guyuan Liupanshan Airport","36.0788888889","106.216944444","5696","AS","CN","CN-64","Guyuan","no","ZLGY",""
"319417","ZLHX","medium_airport","Huatugou Airport","38.201984","90.841495","2945","AS","CN","CN-63","Mengnai","yes","ZLHX",""
"31659","ZLHZ","small_airport","Hanzhong Chenggu Airport","33.134136","107.206014","","AS","CN","CN-61","Hanzhong","yes","ZLHZ",""
"298989","ZLIC","medium_airport","Yinchuan Hedong International Airport","38.322758","106.393214","","AS","CN","CN-64","Yinchuan","yes","ZLIC",""
"300515","ZLJN","medium_airport","Jining Qufu Airport","35.292778","116.346667","134","AS","CN","CN-37","Jining","yes","ZSJG",""
"31699","ZLJQ","medium_airport","Jiayuguan Airport","39.856899","98.3414","5112","AS","CN","CN-62","Jiayuguan","yes","ZLJQ",""
"27204","ZLLL","medium_airport","Lanzhou Zhongchuan Airport","36.5152015686","103.620002747","6388","AS","CN","CN-62","Lanzhou","yes","ZLLL",""
"327544","ZLLN","medium_airport","Longnan Chengzhou Airport","33.788","105.797","3707","AS","CN","CN-62","Longnan","yes","ZLLN",""
"323883","ZLPC","small_airport","Pucheng Neifu Airport","34.833345","109.544267","","AS","CN","CN-61","Pucheng","no","ZLPC",""
"31685","ZLQY","medium_airport","Qingyang Airport","35.799702","107.602997","","AS","CN","CN-62","Qingyang","yes","ZLQY",""
"32299","ZLSN","medium_airport","Xi'an Xiguan Airport","34.376701","109.120003","","AS","CN","CN-61","Xi'an","no","ZLSN",""
"312986","ZLXH","medium_airport","Gannan Xiahe Airport","34.8105","102.6447","10510","AS","CN","CN-62","Xiahe","yes","ZLXH",""
"32709","ZLXN","medium_airport","Xining Caojiabu Airport","36.5275","102.042999","7119","AS","CN","CN-63","Xining","yes","ZLXN",""
"27205","ZLXY","large_airport","Xi'an Xianyang International Airport","34.447102","108.751999","1572","AS","CN","CN-61","Xi'an","yes","ZLXY",""
"31009","ZLYA","closed","Yan'an Ershilipu Airport","36.636902","109.554001","3100","AS","CN","CN-61","Yan'an","no","ZLYA",""
"32563","ZLYL","small_airport","Yulin Yuyang Airport","38.35971","109.590927","","AS","CN","CN-61","Yulin","yes","ZLYL",""
"308462","ZLZW","medium_airport","Zhongwei Shapotou Airport","37.573125","105.154454","8202","AS","CN","CN-64","Zhongwei","yes","ZLZW",""
"41851","ZM-0001","small_airport","Lilayi Airport","-15.512200355500000","28.3246002197","4264","AF","ZM","ZM-09","Lilayi","no","",""
"308257","ZM-0002","small_airport","Mumbwa","-15.072745130300000","27.1867847443","","AF","ZM","ZM-02","","no","",""
"318959","ZM-0003","small_airport","Luangwa Airport","-15.606715","30.395529","","AF","ZM","ZM-09","Luangwa","no","",""
"319005","ZM-0004","small_airport","Sinazongwe Airport","-17.212746","27.488112","","AF","ZM","ZM-07","Sinasongwe","no","",""
"319006","ZM-0005","small_airport","Stakota Airport","-16.788029","28.006395","1850","AF","ZM","ZM-07","","no","",""
"319016","ZM-0006","small_airport","Macha Airport","-16.373833","26.800379","","AF","ZM","ZM-07","Macha","no","",""
"319017","ZM-0007","small_airport","Kafue Airport","-15.729562","28.093427","","AF","ZM","ZM-09","Kafue","no","",""
"319018","ZM-0008","small_airport","Nega Nega Airport","-15.81435","27.969187","","AF","ZM","ZM-07","Nega Nega","no","",""
"319019","ZM-0009","small_airport","Chisamba Airport","-14.85601","28.310738","","AF","ZM","ZM-02","Chisamba","no","",""
"319020","ZM-0010","small_airport","Sandwe Airport","-14.944389","28.115043","","AF","ZM","ZM-02","Sandwe","no","",""
"319021","ZM-0011","small_airport","Kamilonga Airport","-15.003311","28.08601","","AF","ZM","ZM-02","Kamilonga","no","",""
"319022","ZM-0012","small_airport","Liteta Airport","-14.826645","28.023642","","AF","ZM","ZM-02","Liteta","no","",""
"319023","ZM-0013","small_airport","Chiwala Airport","-14.608313","28.343263","","AF","ZM","ZM-02","Chiwala","no","",""
"319024","ZM-0014","small_airport","Mpongwe Airport","-13.636671","27.758297","","AF","ZM","ZM-08","Mpongwe","no","",""
"319025","ZM-0015","small_airport","Karubwe Airport","-15.091233","28.274492","","AF","ZM","ZM-02","Karubwe","no","",""
"319026","ZM-0016","small_airport","Silver Rest Airport","-15.37784","28.53434","","AF","ZM","ZM-09","Silver Rest","no","",""
"319027","ZM-0017","small_airport","Kashikishi Airport","-9.308608","28.752645","","AF","ZM","ZM-04","Kashikishi","no","",""
"319042","ZM-0018","small_airport","Nakambala Airport","-15.774672","27.842683","","AF","ZM","ZM-07","Nakambala","no","",""
"319043","ZM-0019","small_airport","Kamwe Airport","-15.930906","27.956752","","AF","ZM","ZM-07","Kamwe","no","",""
"319044","ZM-0020","small_airport","Kamwe West Airport","-15.915225","27.931955","","AF","ZM","ZM-U-A","Kamwe","no","",""
"319045","ZM-0021","small_airport","Bwanda Airport","-16.009561","27.249314","","AF","ZM","ZM-07","Bwanda","no","",""
"319046","ZM-0022","closed","D181 Airport","-13.956405","26.311195","","AF","ZM","ZM-06","","no","",""
"319047","ZM-0023","small_airport","Lufupa Lodge Airstrip","-14.603896","26.168059","","AF","ZM","ZM-06","","no","",""
"319240","ZM-0024","small_airport","Majuaneti Airport","-15.913306","28.861505","","AF","ZM","ZM-09","Majuaneti","no","",""
"319243","ZM-0025","small_airport","Katemo Airport","-15.607539","29.806837","","AF","ZM","ZM-09","Katemo","no","",""
"319247","ZM-0026","small_airport","Simonga Airport","-17.795194","25.626729","","AF","ZM","ZM-07","Simonga","no","",""
"326766","ZM-0027","small_airport","Mufumbwe Airstrip","-13.088211","25.003993","3763","AF","ZM","ZM-03",";ifi,bwe","no","",""
"326767","ZM-0028","small_airport","Loloma Airstrip","-13.400203","24.335572","3626","AF","ZM","ZM-06","Manyinga","no","",""
"29670","ZMAH","medium_airport","Arvaikheer Airport","46.250301361084000","102.802001953125","5932","AS","MN","MN-055","Arvaikheer","yes","ZMAH",""
"29654","ZMAT","medium_airport","Altai Airport","46.376399993896500","96.22109985351560","7260","AS","MN","MN-065","Altai","yes","ZMAT",""
"32748","ZMBD","small_airport","Binder Airport","48.6067008972168","110.60800170898400","3422","AS","MN","MN-039","Binder","no","ZMBD",""
"27206","ZMBH","medium_airport","Bayankhongor Airport","46.163299560546900","100.7040023803710","6085","AS","MN","MN-069","Bayankhongor","yes","ZMBH",""
"29736","ZMBN","medium_airport","Bulgan Airport","48.85499954223630","103.47599792480500","4311","AS","MN","MN-067","Bulgan","yes","ZMBN",""
"29735","ZMBR","small_airport","Bulagtai Resort Airport","43.749304182","104.114985466","4659","AS","MN","MN-053","Umnugobitour","no","ZMBR",""
"29737","ZMBS","small_airport","Bulgan Sum Airport","46.100601","91.584198","3921","AS","MN","MN-043","Bulgan","no","ZMBS",""
"27207","ZMBU","medium_airport","Baruun Urt Airport","46.660301208496100","113.28500366210900","3205","AS","MN","MN-051","","no","ZMBU",""
"27208","ZMCD","medium_airport","Choibalsan Airport","48.13570022583010","114.64600372314500","2457","AS","MN","MN-061","","no","ZMCD",""
"335326","ZMCK","large_airport","Ulaanbaatar International Airport","47.646916","106.819833","4482","AS","MN","MN-047","Ulaanbaatar","yes","ZMCK",""
"315547","ZMD","small_airport","Sena Madureira Airport","-9.116","-68.6108","540","SA","BR","BR-AC","Sena Madureira","no","",""
"308754","ZMDA","small_airport","Dadal Airport","49.0124","111.509","3220","AS","MN","MN-039","Dadal","no","ZMDA",""
"308755","ZMDN","small_airport","Donoi Airport","47.7093","96.5258","5800","AS","MN","MN-057","Uliastai","yes","ZMDN",""
"27209","ZMDZ","medium_airport","Dalanzadgad Airport","43.59170150756840","104.43000030517600","4787","AS","MN","MN-053","Dalanzadgad","yes","ZMDZ",""
"302315","ZMHH","small_airport","Kharkhorin Airport","47.246667","102.826111","4759","AS","MN","MN-055","","no","ZMHH",""
"30025","ZMHU","small_airport","Khujirt Airport","46.9258003235","102.773002625","5522","AS","MN","MN-055","Khujirt","no","ZMHU",""
"27210","ZMKD","medium_airport","Khovd Airport","47.9541015625","91.6281967163086","4898","AS","MN","MN-043","Khovd","yes","ZMKD",""
"27211","ZMMN","medium_airport","M√∂r√∂n Airport","49.663299560546900","100.0989990234380","4272","AS","MN","MN-041","M√∂r√∂n","yes","ZMMN",""
"308351","ZMOT","small_airport","Khanbumbat Airport","43.145552","106.843509","3924","AS","MN","MN-053","Oyu Tolgoi","no","ZMKB",""
"30373","ZMSH","small_airport","Sainshand Airport","44.98310089111330","110.16699981689500","3022","AS","MN","MN-063","","no","ZMSH",""
"308764","ZMTG","small_airport","Tselserleg Airport","47.46544","101.47755","5530","AS","MN","MN-073","Tselserleg","no","ZMTG",""
"308765","ZMTL","small_airport","Tosontsengel Airport","48.73887","98.2941","5610","AS","MN","MN-057","Tosontsengel","no","ZMTL",""
"27212","ZMUB","large_airport","Buyant-Ukhaa International Airport","47.843102","106.766998","4364","AS","MN","MN-1","Ulan Bator","yes","ZMUB",""
"302316","ZMUG","small_airport","Ulaangom Airport","50.066588","91.938273","","AS","MN","MN-046","Ulaangom","yes","ZMUG",""
"30505","ZMUL","small_airport","Ulgii Mongolei Airport","48.9933013916","89.9225006104","5732","AS","MN","MN-071","","no","ZMUL",""
"26369","ZNC","small_airport","Nyac Airport","60.9807014465","-159.994003296","460","NA","US","US-AK","Nyac","no","ZNC","ZNC"
"332195","ZNU","seaplane_base","Namu Water Aerodrome","51.862825","-127.869357","0","NA","CA","CA-BC","Namu","no","",""
"327447","ZPCW","medium_airport","Cangyuan Washan Airport","23.273889","99.373611","","AS","CN","CN-53","Cangyuan Va Autonomous County","yes","ZPCW",""
"30925","ZPDL","medium_airport","Dali Airport","25.649401","100.319","7050","AS","CN","CN-53","Xiaguan","yes","ZPDL",""
"30916","ZPDQ","medium_airport","Diqing Airport","27.7936","99.6772","10761","AS","CN","CN-53","Shangri-La","yes","ZPDQ",""
"27213","ZPJH","medium_airport","Xishuangbanna Gasa Airport","21.973899841308600","100.76000213623000","1815","AS","CN","CN-53","Jinghong","yes","ZPJH",""
"327448","ZPJM","medium_airport","Lancang Jingmai Airport","22.415833","99.786389","","AS","CN","CN-53","Lancang Lahu Autonomous County","yes","ZPJM",""
"31828","ZPLJ","medium_airport","Lijiang Airport","26.6800003052","100.246002197","","AS","CN","CN-53","Lijiang","yes","ZPLJ",""
"31862","ZPLX","medium_airport","Mangshi Airport","24.4011","98.5317","2890","AS","CN","CN-53","Luxi","yes","ZPMS",""
"27214","ZPPP","large_airport","Kunming Changshui International Airport","25.1019444","102.9291667","6903","AS","CN","CN-53","Kunming","yes","ZPPP",""
"32417","ZPSM","small_airport","Pu'er Simao Airport","22.793301","100.959","","AS","CN","CN-53","Pu'er","yes","ZPSM",""
"318119","ZPWS","small_airport","Wenshan Puzhehei Airport","23.5583","104.3255","5217","AS","CN","CN-53","Wenshan","yes","ZPWS",""
"32740","ZPZT","small_airport","Zhaotong Airport","27.325599670410200","103.75499725341800","","AS","CN","CN-53","Zhaotong","yes","ZPZT",""
"27215","ZSAM","large_airport","Xiamen Gaoqi International Airport","24.54400062561040","118.12799835205100","59","AS","CN","CN-35","Xiamen","yes","ZSAM",""
"30650","ZSAQ","medium_airport","Anqing Tianzhushan Airport","30.582199","117.050003","","AS","CN","CN-34","Anqing","yes","ZSAQ",""
"301883","ZSBB","medium_airport","Bengbu Airport","32.8477333333","117.320244444","100","AS","CN","CN-34","Bengbu","no","ZSBB",""
"30871","ZSCG","small_airport","Changzhou Benniu Airport","31.919701","119.778999","","AS","CN","CN-32","Changzhou","yes","ZSCG",""
"27216","ZSCN","medium_airport","Nanchang Changbei International Airport","28.864999771118200","115.9000015258790","143","AS","CN","CN-36","Nanchang","yes","ZSCN",""
"308240","ZSFY","medium_airport","Fuyang Xiguan Airport","32.882157","115.734364","104","AS","CN","CN-U-A","Fuyang","yes","ZSFY",""
"27217","ZSFZ","large_airport","Fuzhou Changle International Airport","25.935100555419900","119.66300201416000","46","AS","CN","CN-35","Fuzhou","yes","ZSFZ",""
"31769","ZSGZ","small_airport","Ganzhou Airport","25.853333","114.778889","387","AS","CN","CN-36","Ganzhou","yes","ZSGZ",""
"27218","ZSHC","large_airport","Hangzhou Xiaoshan International Airport","30.22949981689450","120.43399810791000","23","AS","CN","CN-33","Hangzhou","yes","ZSHC",""
"31695","ZSJD","medium_airport","Jingdezhen Airport","29.3386001587","117.176002502","112","AS","CN","CN-36","Jingdezhen","yes","ZSJD",""
"35309","ZSJJ","small_airport","Jiujiang Lushan Airport","29.476944","115.801111","","AS","CN","CN-36","Jiujiang","yes","ZSJJ",""
"27219","ZSJN","large_airport","Yaoqiang Airport","36.857200622558600","117.21600341796900","76","AS","CN","CN-37","Jinan","yes","ZSJN",""
"31714","ZSJU","medium_airport","Quzhou Airport","28.965799","118.899002","","AS","CN","CN-33","Quzhou","yes","ZSJU",""
"44234","ZSLD","medium_airport","Longyan Guanzhishan Airport","25.6746997833","116.747001648","1225","AS","CN","CN-35","Longyan","yes","ZSLD",""
"35312","ZSLG","small_airport","Lianyungang Airport","34.571667","118.873611","","AS","CN","CN-32","Lianyungang","yes","ZSLG",""
"31658","ZSLQ","medium_airport","Huangyan Luqiao Airport","28.56220054626470","121.42900085449200","","AS","CN","CN-33","Huangyan","yes","ZSLQ",""
"31871","ZSLY","small_airport","Shubuling Airport","35.04610061645510","118.41200256347700","","AS","CN","CN-37","Linyi","yes","ZSLY",""
"27220","ZSNB","large_airport","Ningbo Lishe International Airport","29.82670021057130","121.46199798584000","13","AS","CN","CN-33","Ningbo","yes","ZSNB",""
"27221","ZSNJ","large_airport","Nanjing Lukou Airport","31.742000579834000","118.86199951171900","49","AS","CN","CN-32","Nanjing","yes","ZSNJ",""
"27222","ZSOF","medium_airport","Hefei Luogang International Airport","31.780000686645500","117.2979965209960","108","AS","CN","CN-34","Hefei","yes","ZSOF",""
"27223","ZSPD","large_airport","Shanghai Pudong International Airport","31.143400192260700","121.80500030517600","13","AS","CN","CN-31","Shanghai","yes","ZSPD",""
"27224","ZSQD","medium_airport","Liuting Airport","36.2661018372","120.374000549","33","AS","CN","CN-37","Qingdao","yes","ZSQD",""
"31705","ZSQZ","medium_airport","Quanzhou Jinjiang International Airport","24.7964","118.589996","","AS","CN","CN-35","Quanzhou","yes","ZSQZ",""
"32235","ZSRG","medium_airport","Rugao Air Base","32.25788497924810","120.50165557861300","","AS","CN","CN-32","Rugao","no","ZSRG",""
"323218","ZSRZ","medium_airport","Rizhao Shanzihe Airport","35.405033","119.324403","121","AS","CN","CN-37","Rizhao","yes","ZSRZ",""
"27225","ZSSS","large_airport","Shanghai Hongqiao International Airport","31.197900772094700","121.33599853515600","10","AS","CN","CN-31","Shanghai","yes","ZSSS",""
"32420","ZSSZ","medium_airport","Suzhou Guangfu Airport","31.2631","120.401001","","AS","CN","CN-32","Suzhou","no","ZSSZ",""
"32489","ZSTX","medium_airport","Tunxi International Airport","29.733299255371100","118.25599670410200","","AS","CN","CN-34","Huangshan","yes","ZSTX",""
"32646","ZSWF","medium_airport","Weifang Airport","36.646702","119.119003","","AS","CN","CN-37","Weifang","yes","ZSWF",""
"27226","ZSWH","medium_airport","Weihai Airport","37.18709945678710","122.22899627685500","145","AS","CN","CN-37","Weihai","yes","ZSWH",""
"32649","ZSWU","medium_airport","Wuhu Air Base","31.3906","118.408997","","AS","CN","CN-34","Wuhu","no","ZSWU",""
"32684","ZSWX","medium_airport","Sunan Shuofang International Airport","31.494400024400000","120.429000854","24","AS","CN","CN-32","Wuxi","yes","ZSWX",""
"32683","ZSWY","medium_airport","Nanping Wuyishan Airport","27.7019","118.000999","614","AS","CN","CN-35","Wuyishan","yes","ZSWY",""
"32672","ZSWZ","large_airport","Wenzhou Longwan International Airport","27.912201","120.851997","","AS","CN","CN-33","Wenzhou","yes","ZSWZ",""
"32713","ZSXZ","medium_airport","Xuzhou Guanyin Airport","34.059056","117.555278","","AS","CN","CN-32","Xuzhou","yes","ZSXZ",""
"317774","ZSYA","medium_airport","Yangzhou Taizhou Airport","32.5634","119.7198","7","AS","CN","CN-32","Yangzhou and Taizhou","yes","ZSYA",""
"315853","ZSYC","medium_airport","Yichun Mingyueshan Airport","27.8025","114.3062","430","AS","CN","CN-36","Yichun","yes","ZSYC",""
"35316","ZSYN","small_airport","Yancheng Airport","33.425833","120.203056","","AS","CN","CN-32","Yancheng","yes","ZSYN",""
"27227","ZSYT","closed","Yantai Laishan Airport","37.401699","121.372002","59","AS","CN","CN-37","Yantai","no","",""
"32726","ZSYW","medium_airport","Yiwu Airport","29.3446998596","120.031997681","262","AS","CN","CN-33","Yiwu","yes","ZSYW",""
"31624","ZSZS","small_airport","Zhoushan Airport","29.9342002869","122.361999512","3","AS","CN","CN-33","Zhoushan","yes","ZSZS",""
"300545","ZUAL","medium_airport","Ngari Gunsa Airport","32.1","80.0530555556","14022","AS","CN","CN-54","Shiquanhe","no","ZUAL",""
"300785","ZUAS","medium_airport","Anshun Huangguoshu Airport","26.2605555556","105.873333333","4812","AS","CN","CN-U-A","Anshun","no","ZUAS",""
"30788","ZUBD","medium_airport","Qamdo Bangda Airport","30.553600311279300","97.1082992553711","14219","AS","CN","CN-54","Bangda","yes","ZUBD",""
"318169","ZUBJ","medium_airport","Bijie Feixiong Airport","27.267066","105.472097","4751","AS","CN","CN-52","Bijie","yes","ZUBJ",""
"27228","ZUCK","large_airport","Chongqing Jiangbei International Airport","29.719200134277300","106.64199829101600","1365","AS","CN","CN-50","Chongqing","yes","ZUCK",""
"327348","ZUDC","medium_airport","Daocheng Yading Airport","29.323056","100.053333","14472","AS","CN","CN-51","Daocheng County","yes","ZUDC",""
"35307","ZUDX","small_airport","Dachuan Airport","31.1302","107.4295","","AS","CN","CN-51","Dazhou","yes","ZUDX",""
"308739","ZUGH","small_airport","Guanghan Airport","30.9485","104.3296","1531","AS","CN","CN-51","Civil Aviation Flight University of China","no","ZUGH",""
"31562","ZUGU","medium_airport","Guangyuan Airport","32.3911018371582","105.7020034790040","","AS","CN","CN-51","Guangyuan","yes","ZUGU",""
"27229","ZUGY","large_airport","Longdongbao Airport","26.53849983215330","106.8010025024410","3736","AS","CN","CN-52","Guiyang","yes","ZUGY",""
"336107","ZUGZ","small_airport","Garze Gesar Airport","31.7575","99.554167","","AS","CN","CN-51","Garze County","yes","ZUGZ","GZG"
"300512","ZUJZ","medium_airport","Jiuzhai Huanglong Airport","32.8533333333","103.682222222","11327","AS","CN","CN-51","Jiuzhaigou","yes","ZUJZ",""
"327350","ZUKD","medium_airport","Kangding Airport","30.142464","101.73872","14042","AS","CN","CN-51","Kangding","yes","ZUKD",""
"313427","ZUKJ","medium_airport","Kaili Airport","26.972","107.988","3115","AS","CN","CN-52","Huangping","yes","ZUKJ",""
"327351","ZULB","small_airport","Libo Airport","25.4525","107.961667","","AS","CN","CN-52","Libo County","no","ZULB",""
"31819","ZULP","small_airport","Liangping Airport","30.679399","107.786003","","AS","CN","CN-50","Liangping","no","ZULP",""
"31867","ZULS","medium_airport","Lhasa Gonggar Airport","29.2978000641","90.91190338130000","11713","AS","CN","CN-54","Lhasa","yes","ZULS",""
"35313","ZULZ","closed","Luzhou Lantian Airport","28.8522","105.392998","","AS","CN","CN-51","Luzhou","no","ZULZ",""
"308767","ZUMH","small_airport","√ñnd√∂rkhaan Airport","47.30486","110.6092","3410","AS","MN","MN-039","√ñnd√∂rkhaan","no","ZMUH",""
"327355","ZUMT","medium_airport","Zunyi Maotai Airport","27.81638","106.33268","4068","AS","CN","CN-52","Zunyi","yes","ZUMT",""
"31908","ZUMY","medium_airport","Mianyang Airport","31.4281005859375","104.74099731445300","","AS","CN","CN-51","Mianyang","yes","ZUMY",""
"32003","ZUNC","small_airport","Nanchong Gaoping Airport","30.79545","106.1626","1145","AS","CN","CN-51","Nanchong","yes","ZUNC",""
"308782","ZUNP","medium_airport","Liping Airport","26.32217","109.1499","1620","AS","CN","CN-52","Liping","yes","ZUNP",""
"31876","ZUNZ","medium_airport","Nyingchi Airport","29.303300857543900","94.33529663085940","9675","AS","CN","CN-54","Nyingchi","yes","ZUNZ",""
"327352","ZUPS","medium_airport","Liupanshui Yuezhao Airport","26.609417","104.979","","AS","CN","CN-52","Liupanshui","yes","ZUPS",""
"323880","ZUSN","small_airport","Suining Airport","30.471295","105.610925","","AS","CN","CN-51","Suining","no","ZUSN",""
"300514","ZUTC","medium_airport","Tengchong Tuofeng Airport","24.9380555556","98.48583333330000","6250","AS","CN","CN-53","Tengchong","yes","ZUTC",""
"302314","ZUTR","small_airport","Tongren Fenghuang Airport","27.883333","109.308889","","AS","CN","CN-52","","no","ZUTR",""
"27230","ZUUU","large_airport","Chengdu Shuangliu International Airport","30.578500747680700","103.9469985961910","1625","AS","CN","CN-51","Chengdu","yes","ZUUU",""
"336105","ZUWS","small_airport","Chongqing Wushan Airport","31.06896","109.708958","","AS","CN","CN-50","Wushan","yes","ZUWS","WSK"
"32688","ZUWX","small_airport","Wanxian Airport","30.8017","108.433","","AS","CN","CN-50","Wanxian","yes","ZUWX",""
"27231","ZUXC","medium_airport","Xichang Qingshan Airport","27.989099502563500","102.18399810791000","5112","AS","CN","CN-51","Xichang","yes","ZUXC",""
"300456","ZUYB","small_airport","Yibin Caiba Airport","28.8005555556","104.545","924","AS","CN","CN-51","Yibin","no","ZUYB",""
"301647","ZUYI","medium_airport","Xingyi Airport","25.0863888889","104.959444444","4150","AS","CN","CN-52","Xingyi","yes","ZUYI",""
"308403","ZUZY","medium_airport","Zunyi Xinzhou Airport","27.5895","107.0007","2920","AS","CN","CN-52","Zunyi","yes","ZUZY",""
"318468","ZW-0001","small_airport","Matetsi Airport","-18.498899","25.918628","","AF","ZW","ZW-MN","Matetsi","no","",""
"318469","ZW-0002","small_airport","Sinamatella Camp Airport","-18.576311","26.320678","","AF","ZW","ZW-MN","Sinamatella Camp","no","",""
"318953","ZW-0003","small_airport","Tilbury Airport","-19.906934","32.969636","","AF","ZW","ZW-MA","Tilbury","no","",""
"318987","ZW-0004","small_airport","Bridge Camp Airstrip","-21.247388","31.908657","","AF","ZW","ZW-MV","","no","",""
"318988","ZW-0005","small_airport","Boli Airport","-21.532188","31.476691","","AF","ZW","ZW-MV","Boli","no","",""
"318990","ZW-0006","small_airport","Malipati Airport","-22.063618","31.436257","","AF","ZW","ZW-MV","Malipati","no","",""
"318991","ZW-0007","small_airport","Makado Airport","-21.456959","29.7175","","AF","ZW","ZW-MS","Makado","no","",""
"318992","ZW-0008","small_airport","Towla Airport","-21.440873","29.883056","","AF","ZW","ZW-MS","Towla","no","",""
"318993","ZW-0009","small_airport","West Nicholson Airport","-21.048952","29.353583","","AF","ZW","ZW-MS","West Nicholson","no","",""
"318994","ZW-0010","small_airport","Belingwe Airport","-20.522514","29.876149","","AF","ZW","ZW-MI","Belingwe","no","",""
"318995","ZW-0011","small_airport","Hwali Airport","-21.679911","29.218657","","AF","ZW","ZW-MS","Hwali","no","",""
"318996","ZW-0012","small_airport","Mwenezi Airport","-21.431546","30.734302","","AF","ZW","ZW-MV","Mwenezi","no","",""
"318999","ZW-0013","small_airport","Lupane Airport","-18.927645","27.806533","","AF","ZW","ZW-MN","Lupane","no","",""
"319000","ZW-0014","small_airport","Nkayi Airport","-18.999493","28.89743","","AF","ZW","ZW-MN","Nkayi","no","",""
"319001","ZW-0015","small_airport","Maronga Airport","-16.855435","28.427123","","AF","ZW","ZW-MW","","no","",""
"319002","ZW-0016","small_airport","Chete Airport","-17.050324","28.001822","","AF","ZW","ZW-MN","","no","",""
"319003","ZW-0017","small_airport","Lake Kariba Airport","-17.345659","27.635","","AF","ZW","ZW-MN","","no","",""
"319004","ZW-0018","small_airport","Sijarira Lodge Airstrip","-17.51631","27.500593","","AF","ZW","ZW-MN","","no","",""
"319007","ZW-0019","small_airport","Manjolo Airport","-17.814685","27.171634","","AF","ZW","ZW-MN","","no","",""
"319008","ZW-0020","small_airport","Chigwell Airport","-18.16483","29.965823","","AF","ZW","ZW-MW","Chigwell","no","",""
"319009","ZW-0021","small_airport","Hot Springs Airport","-19.653303","32.4248","","AF","ZW","ZW-MA","Hot Springs","no","",""
"319012","ZW-0022","small_airport","Dorowa Airport","-19.056975","31.775152","","AF","ZW","ZW-MA","Dorowa","no","",""
"319235","ZW-0023","small_airport","Peoza Pasi Airstrip","-15.977261","30.396064","","AF","ZW","ZW-MC","","no","",""
"319236","ZW-0024","small_airport","Chapoto Road Airstrip","-15.749968","30.402576","","AF","ZW","ZW-MC","","no","",""
"319237","ZW-0025","small_airport","Kanyemba Airport","-15.665006","30.389806","","AF","ZW","ZW-MC","Kanyemba","no","",""
"319239","ZW-0026","small_airport","Mucumbura River Airport","-16.205187","31.681177","","AF","ZW","ZW-MC","","no","",""
"319241","ZW-0027","small_airport","Mwanja River Airport","-15.64811","29.9871","","AF","ZW","ZW-MW","","no","",""
"319242","ZW-0028","small_airport","Chewore Lodge Airstrip","-15.647438","29.879651","","AF","ZW","ZW-MW","","no","",""
"319244","ZW-0029","small_airport","Chikwenya Game Lodge Airstrip","-15.6956","29.576598","","AF","ZW","ZW-MW","","no","",""
"319245","ZW-0030","small_airport","Rukomeshe Research Station Airstrip","-16.147148","29.415766","","AF","ZW","ZW-MW","","no","FVRK",""
"319246","ZW-0031","small_airport","Honde Valley Airport","-18.497124","32.853992","","AF","ZW","ZW-MA","Honde Valley","no","",""
"319248","ZW-0032","small_airport","Chewonde Airport","-17.958974","28.270602","","AF","ZW","ZW-MN","","no","",""
"319249","ZW-0033","small_airport","Sengwa Airport","-18.167161","28.235588","","AF","ZW","ZW-MN","","no","",""
"319250","ZW-0034","small_airport","Sengwa Research Area Airstrip","-18.165196","28.215618","","AF","ZW","ZW-MN","","no","",""
"319251","ZW-0035","small_airport","Gokwe North Airport","-17.537114","28.330871","","AF","ZW","ZW-MI","","no","",""
"319252","ZW-0036","small_airport","Renco Airport","-20.602044","31.170552","","AF","ZW","ZW-MV","Renco","no","",""
"319253","ZW-0037","small_airport","Rupangwana Airport","-21.008374","32.181507","","AF","ZW","ZW-MA","Rupangwana","no","",""
"319254","ZW-0038","small_airport","Chipinge Farm Airstrip","-20.460575","32.203607","","AF","ZW","ZW-MV","","no","",""
"319255","ZW-0039","small_airport","Turwi River Airstrip","-20.395009","32.10904","","AF","ZW","ZW-MV","","no","",""
"319256","ZW-0040","small_airport","Kwaraguza Airport","-18.117815","32.841205","","AF","ZW","ZW-MA","Nyanga","no","",""
"325150","ZW-0041","small_airport","Mana West","-15.83586","29.174883","1232","AF","ZW","ZW-U-A","Mana Pools Area","no","",""
"325152","ZW-0042","small_airport","Sipepa Airstrip","-19.280942","27.648321","3270","AF","ZW","ZW-U-A","","no","",""
"325153","ZW-0043","closed","Pandamatenga East Airstrip","-18.5269","25.693563","3511","AF","ZW","ZW-MN","Mpandamatenga","no","",""
"329802","ZW-0044","closed","Makuti Airstrip","-16.344021","29.202102","3268","AF","ZW","ZW-MW","Makuti","no","",""
"331822","ZW-0045","small_airport","Robins Airstrip","-18.629722","25.979821","","AF","ZW","ZW-U-A","Robins Camp","no","",""
"30635","ZWAK","medium_airport","Aksu Airport","41.262501","80.291702","3816","AS","CN","CN-65","Aksu","yes","ZWAK",""
"46650","ZWAX","medium_airport","Alashankou Bole (Bortala) airport","44.895","82.3","1253","AS","CN","CN-65","Bole","no","ZWBL",""
"31684","ZWCM","medium_airport","Qiemo Yudu Airport","38.233611","85.465556","","AS","CN","CN-65","Qiemo","yes","ZWCM",""
"323219","ZWFY","medium_airport","Fuyun Koktokay Airport","46.804169","89.512006","3081","AS","CN","CN-65","Fuyun","yes","ZWFY",""
"31609","ZWHM","medium_airport","Hami Airport","42.8414","93.669197","2703","AS","CN","CN-65","Hami","yes","ZWHM",""
"31731","ZWKC","small_airport","Kuqa Airport","41.677856","82.872917","3524","AS","CN","CN-65","Kuqa","yes","ZWKC",""
"31771","ZWKL","medium_airport","Korla Airport","41.69779968261720","86.12889862060550","","AS","CN","CN-65","Korla","yes","ZWKL",""
"35310","ZWKM","small_airport","Karamay Airport","45.46655","84.9527","","AS","CN","CN-65","Karamay","yes","ZWKM",""
"313426","ZWKN","medium_airport","Kanas Airport","48.2223","86.9959","3921","AS","CN","CN-65","Burqin","yes","ZWKN",""
"316548","ZWNL","medium_airport","Xinyuan Nalati Airport","43.4318","83.3786","3050","AS","CN","CN-65","Xinyuan County","no","ZWNL",""
"333070","ZWRQ","medium_airport","Ruoqiang Loulan Airport","38.974722","88.008333","2916","AS","CN","CN-65","Ruoqiang Town","yes","ZWRQ",""
"326731","ZWSC","medium_airport","Yeerqiang Airport","38.281055","77.075192","4232","AS","CN","CN-65","Shache","yes","ZWSC",""
"27234","ZWSH","medium_airport","Kashgar Airport","39.5429000854","76.0199966431","4529","AS","CN","CN-65","Kashgar","yes","ZWSH",""
"32406","ZWSS","medium_airport","Shanshan Airport","42.91170120239260","90.24749755859380","","AS","CN","CN-65","Shanshan","no","ZWSS",""
"28144","ZWTC","small_airport","Tacheng Airport","46.67250061035160","83.3407974243164","","AS","CN","CN-65","Tacheng","no","ZWTC",""
"27235","ZWTN","medium_airport","Hotan Airport","37.03850173950200","79.86489868164060","4672","AS","CN","CN-65","Hotan","yes","ZWTN",""
"314799","ZWTP","medium_airport","Turpan Jiaohe Airport","43.0308","89.0987","934","AS","CN","CN-65","Turpan","no","ZWTP",""
"27236","ZWWW","large_airport","√úr√ºmqi Diwopu International Airport","43.907100677490200","87.47419738769530","2125","AS","CN","CN-65","√úr√ºmqi","yes","ZWWW",""
"32725","ZWYN","small_airport","Yining Airport","43.955799","81.330299","","AS","CN","CN-65","Yining","yes","ZWYN",""
"30646","ZYAS","medium_airport","Anshan Air Base","41.105301","122.853996","","AS","CN","CN-21","Anshan","yes","ZYAS",""
"27237","ZYCC","medium_airport","Longjia Airport","43.9962005615","125.684997559","706","AS","CN","CN-22","Changchun","yes","ZYCC",""
"300858","ZYCH","medium_airport","Changhai Airport","39.2666666667","122.666944444","80","AS","CN","CN-21","Changhai","no","ZYCH",""
"30827","ZYCY","medium_airport","Chaoyang Airport","41.538101","120.434998","568","AS","CN","CN-21","Chaoyang","yes","ZYCY",""
"327349","ZYDU","medium_airport","Wudalianchi Dedu Airport","48.445","126.133","984","AS","CN","CN-23","Wudalianchi","yes","ZYDU",""
"324338","ZYFX","small_airport","Fuxin Airport","42.069014","121.718122","548","AS","CN","CN-21","Fuxin","no","ZYFX",""
"313994","ZYFY","medium_airport","Dongji Aiport","48.199494","134.366447","","AS","CN","CN-23","Fuyuan","yes","ZYFY",""
"335271","ZYGH","small_airport","Genhe Airport","50.700277","121.3825","2257","AS","CN","CN-15","Haolibao","no","ZYGH",""
"27238","ZYHB","large_airport","Taiping Airport","45.6234016418457","126.25","457","AS","CN","CN-23","Harbin","yes","ZYHB",""
"31576","ZYHE","medium_airport","Heihe Airport","50.1716209371","127.308883667","8530","AS","CN","CN-23","Heihe","yes","ZYHE",""
"31701","ZYJL","small_airport","Jilin Airport","44.002201","126.396004","","AS","CN","CN-22","Jilin","no","ZYJL",""
"27239","ZYJM","medium_airport","Jiamusi Airport","46.84339904790000","130.464996338","262","AS","CN","CN-23","Jiamusi","yes","ZYJM",""
"327450","ZYJS","medium_airport","Jiansanjiang Airport","47.11","132.660278","","AS","CN","CN-23","Jiansanjiang","yes","ZYJS",""
"313337","ZYJX","medium_airport","Jixi Xingkaihu Airport","45.293","131.193","760","AS","CN","CN-23","Jixi","yes","ZYJX",""
"31706","ZYJZ","medium_airport","Jinzhou Airport","41.10139846801760","121.06199645996100","","AS","CN","CN-21","Jinzhou","yes","ZYJZ",""
"307012","ZYLD","medium_airport","Lindu Airport","47.7520555556","129.019125","791","AS","CN","CN-23","Yichun","yes","ZYLD",""
"300516","ZYLS","medium_airport","Yushu Batang Airport","32.836388888900000","97.0363888889","12816","AS","CN","CN-63","Yushu","no","ZYLS",""
"335272","ZYLY","small_airport","Liaoyang Airbase","41.277976","123.078729","57","AS","CN","CN-21","Liaoyang","no","ZYLY",""
"27240","ZYMD","medium_airport","Mudanjiang Hailang International Airport","44.5241012573","129.569000244","883","AS","CN","CN-23","Mudanjiang","yes","ZYMD",""
"301193","ZYMH","medium_airport","Gu-Lian Airport","52.912777777800000","122.43","1836","AS","CN","CN-23","Mohe","yes","ZYMH",""
"27241","ZYQQ","medium_airport","Qiqihar Sanjiazi Airport","47.239601135253900","123.91799926757800","477","AS","CN","CN-23","Qiqihar","yes","ZYQQ",""
"327451","ZYSQ","medium_airport","Songyuan Chaganhu Airport","44.938114","124.550178","459","AS","CN","CN-22","Qian Gorlos Mongol Autonomous County","yes","ZYSQ",""
"307017","ZYTH","small_airport","Tahe Airport","52.2244444444","124.720222222","1240","AS","CN","CN-23","Tahe","no","ZYTH",""
"27242","ZYTL","large_airport","Zhoushuizi Airport","38.9656982421875","121.53900146484400","107","AS","CN","CN-21","Dalian","yes","ZYTL",""
"307013","ZYTN","medium_airport","Tonghua Sanyuanpu Airport","42.2538888889","125.703333333","1200","AS","CN","CN-22","Tonghua","yes","ZYTN",""
"27243","ZYTX","large_airport","Taoxian Airport","41.639801025390600","123.48300170898400","198","AS","CN","CN-21","Shenyang","yes","ZYTX",""
"27244","ZYYJ","medium_airport","Yanji Chaoyangchuan Airport","42.8828010559","129.451004028","624","AS","CN","CN-22","Yanji","yes","ZYYJ",""
"317861","ZYYK","medium_airport","Yingkou Lanqi Airport","40.542524","122.3586","0","AS","CN","CN-21","Yingkou","yes","ZYYK",""
"32753","ZYYY","medium_airport","Shenyang Dongta Airport","41.784400939941400","123.49600219726600","","AS","CN","CN-21","Shenyang","no","ZYYY",""
"46378","ZZ-0001","heliport","Sealand Helipad","51.894444","1.4825","40","EU","GB","GB-ENG","Sealand","no","",""
"307326","ZZ-0002","small_airport","Glorioso Islands Airstrip","-11.584277777800000","47.296388888900000","11","AF","TF","TF-U-A","Grande Glorieuse","no","",""
"313629","ZZZZ","small_airport","Satsuma I≈çjima Airport","30.784722","130.270556","338","AS","JP","JP-46","Mishima-Mura","no","RJX7","RJX7"
